{"fetched_at":"2026-03-29T02:12:04Z","count":15717,"tles":[{"name":"TDRS 5","line1":"1 21639U 91054B   26087.25558338  .00000072  00000+0  00000+0 0  9999","line2":"2 21639  14.0818 354.3784 0009589 279.2122 196.4212  1.00275572126907","category":"Other"}]}